CELESTIS-02 & TAURUS R/B
1 25160U 98007D   24350.63843733  .00000381  00000+0  22518-3 0  9991
2 25160 108.0046 305.0988 0062662 348.8138 183.9079 14.22200355392516
